OBJECT_NAME,OBJECT_ID,EPOCH,MEAN_MOTION,ECCENTRICITY,INCLINATION,RA_OF_ASC_NODE,ARG_OF_PERICENTER,MEAN_ANOMALY,EPHEMERIS_TYPE,CLASSIFICATION_TYPE,NORAD_CAT_ID,ELEMENT_SET_NO,REV_AT_EPOCH,BSTAR,MEAN_MOTION_DOT,MEAN_MOTION_DDOT
COSMOS 2554,2022-036A,2026-07-05T14:28:40.147680,13.96673013,.00052536,67.1461,183.9363,261.5043,98.5447,0,U,52202,999,21652,.7709434E-5,-.65E-6,0
ZHONGXING-6D,2022-038A,2026-07-04T20:48:15.649920,1.00270324,.00005473,0.0341,90.3422,95.4546,174.2012,0,U,52255,999,1560,0,-.341E-5,0
DAQI-1,2022-039A,2026-07-05T14:38:46.849344,14.57688560,.00032187,98.1487,125.0817,175.5389,184.5839,0,U,52257,999,22462,.77919381E-4,.31E-5,0
STARLINK-3761,2022-041B,2026-07-05T08:30:09.498240,15.08841147,.00011534,53.1589,300.6479,89.9048,270.2076,0,U,52262,999,23212,.10379228E-3,.1364E-4,0
STARLINK-3786,2022-041C,2026-07-05T08:35:29.621472,15.08836043,.00011303,53.1607,300.6827,98.7162,261.3958,0,U,52263,999,23212,.13045807E-3,.1789E-4,0
STARLINK-3795,2022-041D,2026-07-05T14:00:03.000384,15.34284023,.00021701,53.1588,297.5352,78.1361,126.1304,0,U,52264,999,574,.26002228E-2,.8819E-3,0
STARLINK-3740,2022-041E,2026-07-05T14:00:03.000384,15.21474109,.00019119,53.1590,299.1013,73.3760,65.9599,0,U,52265,999,584,.26895061E-2,.61426E-3,0
STARLINK-3739,2022-041F,2026-07-05T07:53:37.857696,15.09988381,.00011975,53.2137,300.8589,29.0255,331.0804,0,U,52266,999,23212,.12872497E-2,.20915E-3,0
STARLINK-3748,2022-041G,2026-07-05T14:00:03.000384,15.19476853,.0001398,53.1589,299.2571,61.8434,40.2434,0,U,52267,999,584,.15564115E-2,.33262E-3,0
STARLINK-3746,2022-041H,2026-07-05T14:00:03.000384,15.24431949,.00009825,53.1606,298.8103,64.3651,325.7020,0,U,52268,999,559,.21341284E-2,.53086E-3,0
STARLINK-3791,2022-041J,2026-07-05T08:03:40.260096,15.08833367,.00013458,53.1594,300.7796,90.9914,269.1231,0,U,52269,999,23212,.12561554E-3,.1711E-4,0
STARLINK-3804,2022-041K,2026-07-05T07:53:05.449920,15.08834571,.0000783,53.1604,300.8421,97.8775,262.2306,0,U,52270,999,23212,.3371439E-5,-.234E-5,0
STARLINK-3788,2022-041L,2026-07-05T07:58:22.973376,15.08829282,.00010911,53.1601,300.7985,86.5742,273.5374,0,U,52271,999,23212,.11695171E-3,.1573E-4,0
STARLINK-3781,2022-041M,2026-07-05T14:00:03.000384,15.28271630,.00016148,53.1606,298.8578,49.6075,350.7644,0,U,52272,999,579,.42938731E-1,.1315502E-1,0
STARLINK-3782,2022-041N,2026-07-05T14:00:03.000384,15.22254585,.00010038,53.1589,289.6420,76.9570,252.1049,0,U,52273,999,585,.46517142E-1,.1179385E-1,0
STARLINK-3790,2022-041P,2026-07-05T14:00:03.000384,15.25239468,.00013561,53.1608,299.0415,65.2647,263.9059,0,U,52274,999,580,.36146304E-1,.1000807E-1,0
STARLINK-3784,2022-041Q,2026-07-05T07:47:47.216256,15.08834378,.00010639,53.1582,300.8304,68.9163,291.1942,0,U,52275,999,23212,-.2094947E-4,-.621E-5,0
STARLINK-3778,2022-041R,2026-07-05T07:31:53.152896,15.08841799,.00014054,53.1607,300.8827,59.1531,300.9598,0,U,52276,999,23212,.1881021E-4,.11E-6,0
STARLINK-3780,2022-041T,2026-07-05T07:26:35.106720,15.08837883,.00010163,53.1622,300.8958,103.6836,256.4269,0,U,52278,999,23212,.75487965E-4,.914E-5,0
STARLINK-3764,2022-041V,2026-07-05T14:00:03.000384,15.25328068,.000146,53.1580,299.0037,62.7321,26.8481,0,U,52280,999,580,.40839953E-1,.1129831E-1,0
STARLINK-3779,2022-041W,2026-07-05T07:33:15.683904,15.08841608,.00010348,53.1606,300.8754,90.5646,269.5464,0,U,52281,999,23212,.47924484E-4,.475E-5,0
STARLINK-3783,2022-041X,2026-07-05T14:00:03.000384,15.13086974,.00020309,53.1596,289.5832,60.4016,124.3344,0,U,52282,999,579,.21643647E-2,.38656E-3,0
STARLINK-3789,2022-041Y,2026-07-05T07:21:17.221248,15.08839852,.00010915,53.1604,300.9116,93.7586,266.3531,0,U,52283,999,23212,.69334651E-4,.816E-5,0
STARLINK-3561,2022-041Z,2026-07-05T06:35:48.659136,15.11727299,.00012846,53.1608,290.9439,78.7951,281.3186,0,U,52284,999,23225,.89009024E-3,.15077E-3,0
STARLINK-3802,2022-041AB,2026-07-05T14:00:03.000384,15.12578434,.00016989,53.1586,289.6270,94.9739,147.2782,0,U,52286,999,579,.20490528E-2,.36048E-3,0
STARLINK-3822,2022-041AC,2026-07-05T14:00:03.000384,15.22119041,.00008132,53.1614,299.2680,58.8246,273.5370,0,U,52287,999,579,.48305289E-1,.1223877E-1,0
STARLINK-3776,2022-041AD,2026-07-05T14:00:03.000384,15.12535057,.00018727,53.1589,289.6268,71.1394,191.5510,0,U,52288,999,584,.18851886E-2,.33087E-3,0
STARLINK-3751,2022-041AE,2026-07-05T14:00:03.000384,15.19179928,.00007833,53.1587,289.4242,92.6077,194.4945,0,U,52289,999,560,.53722578E-1,.1252475E-1,0
STARLINK-3772,2022-041AF,2026-07-05T14:00:03.000384,15.11595624,.00012852,53.1588,289.6345,33.4980,279.0935,0,U,52290,999,578,.20644621E-2,.35332E-3,0
STARLINK-3753,2022-041AH,2026-07-05T14:00:03.000384,15.12707525,.00003615,53.1590,289.6228,71.7043,271.7197,0,U,52292,999,578,.18813593E-2,.3318E-3,0
