COSMOS 2554             
1 52202U 22036A   26186.60324245 -.00000065  00000+0  77094-5 0  9996
2 52202  67.1461 183.9363 0005253 261.5043  98.5447 13.96673013216529
ZHONGXING-6D            
1 52255U 22038A   26185.86684780 -.00000341  00000+0  00000+0 0  9990
2 52255   0.0341  90.3422 0000547  95.4546 174.2012  1.00270324 15606
DAQI-1                  
1 52257U 22039A   26186.61026446  .00000310  00000+0  77919-4 0  9999
2 52257  98.1487 125.0817 0003218 175.5389 184.5839 14.57688560224620
STARLINK-3761           
1 52262U 22041B   26186.35427660  .00001364  00000+0  10379-3 0  9998
2 52262  53.1589 300.6479 0001153  89.9048 270.2076 15.08841147232120
STARLINK-3786           
1 52263U 22041C   26186.35798173  .00001789  00000+0  13046-3 0  9994
2 52263  53.1607 300.6827 0001130  98.7162 261.3958 15.08836043232128
STARLINK-3795           
1 52264U 22041D   26186.58336806  .00088190  00000+0  26002-2 0  9997
2 52264  53.1588 297.5352 0002170  78.1361 126.1304 15.34284023  5745
STARLINK-3740           
1 52265U 22041E   26186.58336806  .00061426  00000+0  26895-2 0  9991
2 52265  53.1590 299.1013 0001911  73.3760  65.9599 15.21474109  5842
STARLINK-3739           
1 52266U 22041F   26186.32891039  .00020915  00000+0  12872-2 0  9996
2 52266  53.2137 300.8589 0001197  29.0255 331.0804 15.09988381232129
STARLINK-3748           
1 52267U 22041G   26186.58336806  .00033262  00000+0  15564-2 0  9991
2 52267  53.1589 299.2571 0001398  61.8434  40.2434 15.19476853  5840
STARLINK-3746           
1 52268U 22041H   26186.58336806  .00053086  00000+0  21341-2 0  9998
2 52268  53.1606 298.8103 0000982  64.3651 325.7020 15.24431949  5591
STARLINK-3791           
1 52269U 22041J   26186.33588264  .00001711  00000+0  12562-3 0  9993
2 52269  53.1594 300.7796 0001345  90.9914 269.1231 15.08833367232128
STARLINK-3804           
1 52270U 22041K   26186.32853530 -.00000234  00000+0  33714-5 0  9999
2 52270  53.1604 300.8421 0000783  97.8775 262.2306 15.08834571232129
STARLINK-3788           
1 52271U 22041L   26186.33221034  .00001573  00000+0  11695-3 0  9997
2 52271  53.1601 300.7985 0001091  86.5742 273.5374 15.08829282232126
STARLINK-3781           
1 52272U 22041M   26186.58336806  .01315502  00000+0  42939-1 0  9993
2 52272  53.1606 298.8578 0001614  49.6075 350.7644 15.28271630  5796
STARLINK-3782           
1 52273U 22041N   26186.58336806  .01179385  00000+0  46517-1 0  9997
2 52273  53.1589 289.6420 0001003  76.9570 252.1049 15.22254585  5851
STARLINK-3790           
1 52274U 22041P   26186.58336806  .01000807  00000+0  36146-1 0  9997
2 52274  53.1608 299.0415 0001356  65.2647 263.9059 15.25239468  5802
STARLINK-3784           
1 52275U 22041Q   26186.32485204 -.00000621  00000+0 -20949-4 0  9999
2 52275  53.1582 300.8304 0001063  68.9163 291.1942 15.08834378232123
STARLINK-3778           
1 52276U 22041R   26186.31380964  .00000011  00000+0  18810-4 0  9991
2 52276  53.1607 300.8827 0001405  59.1531 300.9598 15.08841799232124
STARLINK-3780           
1 52278U 22041T   26186.31012855  .00000914  00000+0  75488-4 0  9990
2 52278  53.1622 300.8958 0001016 103.6836 256.4269 15.08837883232128
STARLINK-3764           
1 52280U 22041V   26186.58336806  .01129831  00000+0  40840-1 0  9999
2 52280  53.1580 299.0037 0001460  62.7321  26.8481 15.25328068  5805
STARLINK-3779           
1 52281U 22041W   26186.31476486  .00000475  00000+0  47924-4 0  9994
2 52281  53.1606 300.8754 0001034  90.5646 269.5464 15.08841608232123
STARLINK-3783           
1 52282U 22041X   26186.58336806  .00038656  00000+0  21644-2 0  9996
2 52282  53.1596 289.5832 0002030  60.4016 124.3344 15.13086974  5795
STARLINK-3789           
1 52283U 22041Y   26186.30644932  .00000816  00000+0  69335-4 0  9997
2 52283  53.1604 300.9116 0001091  93.7586 266.3531 15.08839852232125
STARLINK-3561           
1 52284U 22041Z   26186.27486874  .00015077  00000+0  89009-3 0  9997
2 52284  53.1608 290.9439 0001284  78.7951 281.3186 15.11727299232251
STARLINK-3802           
1 52286U 22041AB  26186.58336806  .00036048  00000+0  20491-2 0  9992
2 52286  53.1586 289.6270 0001698  94.9739 147.2782 15.12578434  5794
STARLINK-3822           
1 52287U 22041AC  26186.58336806  .01223877  00000+0  48305-1 0  9995
2 52287  53.1614 299.2680 0000813  58.8246 273.5370 15.22119041  5791
STARLINK-3776           
1 52288U 22041AD  26186.58336806  .00033087  00000+0  18852-2 0  9992
2 52288  53.1589 289.6268 0001872  71.1394 191.5510 15.12535057  5845
STARLINK-3751           
1 52289U 22041AE  26186.58336806  .01252475  00000+0  53723-1 0  9993
2 52289  53.1587 289.4242 0000783  92.6077 194.4945 15.19179928  5606
STARLINK-3772           
1 52290U 22041AF  26186.58336806  .00035332  00000+0  20645-2 0  9993
2 52290  53.1588 289.6345 0001285  33.4980 279.0935 15.11595624  5784
STARLINK-3753           
1 52292U 22041AH  26186.58336806  .00033180  00000+0  18814-2 0  9999
2 52292  53.1590 289.6228 0000361  71.7043 271.7197 15.12707525  5783
